ORBCOMM-X               
1 21576U 91050C   24324.77814281  .00000650  00000+0  20730-3 0  9994
2 21576  98.3724  29.3889 0004834  98.5934 261.5804 14.42922773751912
ORBCOMM FM01            
1 23545U 95017A   24324.72816869  .00013064  00000+0  15258-2 0  9999
2 23545  69.9650 234.6950 0007524 279.2397  80.7904 14.85254785581351
ORBCOMM FM02            
1 23546U 95017B   24324.25620708  .00013407  00000+0  15713-2 0  9990
2 23546  69.9671 255.5437 0009627 279.7121  80.2944 14.85088464580923
ORBCOMM FM08            
1 25112U 97084A   24324.86171959  .00004059  00000+0  12087-2 0  9997
2 25112  45.0143 291.7038 0007822 281.7697  78.2276 14.44326970411096
ORBCOMM FM10            
1 25113U 97084B   24324.53818533  .00003308  00000+0  99626-3 0  9999
2 25113  45.0156 295.2999 0005143 256.9580 103.0697 14.44178318586194
ORBCOMM FM11            
1 25114U 97084C   24324.92353507  .00003253  00000+0  98473-3 0  9996
2 25114  45.0139 293.7312 0006000 256.6786 103.3395 14.43965003411218
ORBCOMM FM12            
1 25115U 97084D   24324.54196122  .00002992  00000+0  90918-3 0  9998
2 25115  45.0150 295.3159 0005010 257.9331 102.0958 14.43961671410957
ORBCOMM FM09            
1 25116U 97084E   24324.35166740  .00002813  00000+0  85842-3 0  9993
2 25116  45.0154 296.9845 0005699 239.1090 120.9201 14.43893982411138
