<?xml version="1.0" encoding="UTF-8"?>
<ndm xmlns:xsi="http://www.w3.org/2001/XMLSchema-instance" xsi:noNamespaceSchemaLocation="https://sanaregistry.org/r/ndmxml_unqualified/ndmxml-2.0.0-master-2.0.xsd">
<omm id="CCSDS_OMM_VERS" version="2.0">
<header><CREATION_DATE/><ORIGINATOR/></header><body><segment><metadata><OBJECT_NAME>ORBCOMM-X</OBJECT_NAME><OBJECT_ID>1991-050C</OBJECT_ID><CENTER_NAME>EARTH</CENTER_NAME><REF_FRAME>TEME</REF_FRAME><TIME_SYSTEM>UTC</TIME_SYSTEM><MEAN_ELEMENT_THEORY>SGP4</MEAN_ELEMENT_THEORY></metadata><data><meanElements><EPOCH>2024-11-19T18:40:31.538784</EPOCH><MEAN_MOTION>14.42922773</MEAN_MOTION><ECCENTRICITY>.0004834</ECCENTRICITY><INCLINATION>98.3724</INCLINATION><RA_OF_ASC_NODE>29.3889</RA_OF_ASC_NODE><ARG_OF_PERICENTER>98.5934</ARG_OF_PERICENTER><MEAN_ANOMALY>261.5804</MEAN_ANOMALY></meanElements><tleParameters><EPHEMERIS_TYPE>0</EPHEMERIS_TYPE><CLASSIFICATION_TYPE>U</CLASSIFICATION_TYPE><NORAD_CAT_ID>21576</NORAD_CAT_ID><ELEMENT_SET_NO>999</ELEMENT_SET_NO><REV_AT_EPOCH>75191</REV_AT_EPOCH><BSTAR>.2073E-3</BSTAR><MEAN_MOTION_DOT>.65E-5</MEAN_MOTION_DOT><MEAN_MOTION_DDOT>0</MEAN_MOTION_DDOT></tleParameters></data></segment></body></omm>
<omm id="CCSDS_OMM_VERS" version="2.0">
<header><CREATION_DATE/><ORIGINATOR/></header><body><segment><metadata><OBJECT_NAME>ORBCOMM FM01</OBJECT_NAME><OBJECT_ID>1995-017A</OBJECT_ID><CENTER_NAME>EARTH</CENTER_NAME><REF_FRAME>TEME</REF_FRAME><TIME_SYSTEM>UTC</TIME_SYSTEM><MEAN_ELEMENT_THEORY>SGP4</MEAN_ELEMENT_THEORY></metadata><data><meanElements><EPOCH>2024-11-19T17:28:33.774816</EPOCH><MEAN_MOTION>14.85254785</MEAN_MOTION><ECCENTRICITY>.0007524</ECCENTRICITY><INCLINATION>69.9650</INCLINATION><RA_OF_ASC_NODE>234.6950</RA_OF_ASC_NODE><ARG_OF_PERICENTER>279.2397</ARG_OF_PERICENTER><MEAN_ANOMALY>80.7904</MEAN_ANOMALY></meanElements><tleParameters><EPHEMERIS_TYPE>0</EPHEMERIS_TYPE><CLASSIFICATION_TYPE>U</CLASSIFICATION_TYPE><NORAD_CAT_ID>23545</NORAD_CAT_ID><ELEMENT_SET_NO>999</ELEMENT_SET_NO><REV_AT_EPOCH>58135</REV_AT_EPOCH><BSTAR>.15258E-2</BSTAR><MEAN_MOTION_DOT>.13064E-3</MEAN_MOTION_DOT><MEAN_MOTION_DDOT>0</MEAN_MOTION_DDOT></tleParameters></data></segment></body></omm>
<omm id="CCSDS_OMM_VERS" version="2.0">
<header><CREATION_DATE/><ORIGINATOR/></header><body><segment><metadata><OBJECT_NAME>ORBCOMM FM02</OBJECT_NAME><OBJECT_ID>1995-017B</OBJECT_ID><CENTER_NAME>EARTH</CENTER_NAME><REF_FRAME>TEME</REF_FRAME><TIME_SYSTEM>UTC</TIME_SYSTEM><MEAN_ELEMENT_THEORY>SGP4</MEAN_ELEMENT_THEORY></metadata><data><meanElements><EPOCH>2024-11-19T06:08:56.291712</EPOCH><MEAN_MOTION>14.85088464</MEAN_MOTION><ECCENTRICITY>.0009627</ECCENTRICITY><INCLINATION>69.9671</INCLINATION><RA_OF_ASC_NODE>255.5437</RA_OF_ASC_NODE><ARG_OF_PERICENTER>279.7121</ARG_OF_PERICENTER><MEAN_ANOMALY>80.2944</MEAN_ANOMALY></meanElements><tleParameters><EPHEMERIS_TYPE>0</EPHEMERIS_TYPE><CLASSIFICATION_TYPE>U</CLASSIFICATION_TYPE><NORAD_CAT_ID>23546</NORAD_CAT_ID><ELEMENT_SET_NO>999</ELEMENT_SET_NO><REV_AT_EPOCH>58092</REV_AT_EPOCH><BSTAR>.15713E-2</BSTAR><MEAN_MOTION_DOT>.13407E-3</MEAN_MOTION_DOT><MEAN_MOTION_DDOT>0</MEAN_MOTION_DDOT></tleParameters></data></segment></body></omm>
<omm id="CCSDS_OMM_VERS" version="2.0">
<header><CREATION_DATE/><ORIGINATOR/></header><body><segment><metadata><OBJECT_NAME>ORBCOMM FM08</OBJECT_NAME><OBJECT_ID>1997-084A</OBJECT_ID><CENTER_NAME>EARTH</CENTER_NAME><REF_FRAME>TEME</REF_FRAME><TIME_SYSTEM>UTC</TIME_SYSTEM><MEAN_ELEMENT_THEORY>SGP4</MEAN_ELEMENT_THEORY></metadata><data><meanElements><EPOCH>2024-11-19T20:40:52.572576</EPOCH><MEAN_MOTION>14.44326970</MEAN_MOTION><ECCENTRICITY>.0007822</ECCENTRICITY><INCLINATION>45.0143</INCLINATION><RA_OF_ASC_NODE>291.7038</RA_OF_ASC_NODE><ARG_OF_PERICENTER>281.7697</ARG_OF_PERICENTER><MEAN_ANOMALY>78.2276</MEAN_ANOMALY></meanElements><tleParameters><EPHEMERIS_TYPE>0</EPHEMERIS_TYPE><CLASSIFICATION_TYPE>U</CLASSIFICATION_TYPE><NORAD_CAT_ID>25112</NORAD_CAT_ID><ELEMENT_SET_NO>999</ELEMENT_SET_NO><REV_AT_EPOCH>41109</REV_AT_EPOCH><BSTAR>.12087E-2</BSTAR><MEAN_MOTION_DOT>.4059E-4</MEAN_MOTION_DOT><MEAN_MOTION_DDOT>0</MEAN_MOTION_DDOT></tleParameters></data></segment></body></omm>
<omm id="CCSDS_OMM_VERS" version="2.0">
<header><CREATION_DATE/><ORIGINATOR/></header><body><segment><metadata><OBJECT_NAME>ORBCOMM FM10</OBJECT_NAME><OBJECT_ID>1997-084B</OBJECT_ID><CENTER_NAME>EARTH</CENTER_NAME><REF_FRAME>TEME</REF_FRAME><TIME_SYSTEM>UTC</TIME_SYSTEM><MEAN_ELEMENT_THEORY>SGP4</MEAN_ELEMENT_THEORY></metadata><data><meanElements><EPOCH>2024-11-19T12:54:59.212512</EPOCH><MEAN_MOTION>14.44178318</MEAN_MOTION><ECCENTRICITY>.0005143</ECCENTRICITY><INCLINATION>45.0156</INCLINATION><RA_OF_ASC_NODE>295.2999</RA_OF_ASC_NODE><ARG_OF_PERICENTER>256.9580</ARG_OF_PERICENTER><MEAN_ANOMALY>103.0697</MEAN_ANOMALY></meanElements><tleParameters><EPHEMERIS_TYPE>0</EPHEMERIS_TYPE><CLASSIFICATION_TYPE>U</CLASSIFICATION_TYPE><NORAD_CAT_ID>25113</NORAD_CAT_ID><ELEMENT_SET_NO>999</ELEMENT_SET_NO><REV_AT_EPOCH>58619</REV_AT_EPOCH><BSTAR>.99626E-3</BSTAR><MEAN_MOTION_DOT>.3308E-4</MEAN_MOTION_DOT><MEAN_MOTION_DDOT>0</MEAN_MOTION_DDOT></tleParameters></data></segment></body></omm>
<omm id="CCSDS_OMM_VERS" version="2.0">
<header><CREATION_DATE/><ORIGINATOR/></header><body><segment><metadata><OBJECT_NAME>ORBCOMM FM11</OBJECT_NAME><OBJECT_ID>1997-084C</OBJECT_ID><CENTER_NAME>EARTH</CENTER_NAME><REF_FRAME>TEME</REF_FRAME><TIME_SYSTEM>UTC</TIME_SYSTEM><MEAN_ELEMENT_THEORY>SGP4</MEAN_ELEMENT_THEORY></metadata><data><meanElements><EPOCH>2024-11-19T22:09:53.430048</EPOCH><MEAN_MOTION>14.43965003</MEAN_MOTION><ECCENTRICITY>.0006</ECCENTRICITY><INCLINATION>45.0139</INCLINATION><RA_OF_ASC_NODE>293.7312</RA_OF_ASC_NODE><ARG_OF_PERICENTER>256.6786</ARG_OF_PERICENTER><MEAN_ANOMALY>103.3395</MEAN_ANOMALY></meanElements><tleParameters><EPHEMERIS_TYPE>0</EPHEMERIS_TYPE><CLASSIFICATION_TYPE>U</CLASSIFICATION_TYPE><NORAD_CAT_ID>25114</NORAD_CAT_ID><ELEMENT_SET_NO>999</ELEMENT_SET_NO><REV_AT_EPOCH>41121</REV_AT_EPOCH><BSTAR>.98473E-3</BSTAR><MEAN_MOTION_DOT>.3253E-4</MEAN_MOTION_DOT><MEAN_MOTION_DDOT>0</MEAN_MOTION_DDOT></tleParameters></data></segment></body></omm>
<omm id="CCSDS_OMM_VERS" version="2.0">
<header><CREATION_DATE/><ORIGINATOR/></header><body><segment><metadata><OBJECT_NAME>ORBCOMM FM12</OBJECT_NAME><OBJECT_ID>1997-084D</OBJECT_ID><CENTER_NAME>EARTH</CENTER_NAME><REF_FRAME>TEME</REF_FRAME><TIME_SYSTEM>UTC</TIME_SYSTEM><MEAN_ELEMENT_THEORY>SGP4</MEAN_ELEMENT_THEORY></metadata><data><meanElements><EPOCH>2024-11-19T13:00:25.449408</EPOCH><MEAN_MOTION>14.43961671</MEAN_MOTION><ECCENTRICITY>.000501</ECCENTRICITY><INCLINATION>45.0150</INCLINATION><RA_OF_ASC_NODE>295.3159</RA_OF_ASC_NODE><ARG_OF_PERICENTER>257.9331</ARG_OF_PERICENTER><MEAN_ANOMALY>102.0958</MEAN_ANOMALY></meanElements><tleParameters><EPHEMERIS_TYPE>0</EPHEMERIS_TYPE><CLASSIFICATION_TYPE>U</CLASSIFICATION_TYPE><NORAD_CAT_ID>25115</NORAD_CAT_ID><ELEMENT_SET_NO>999</ELEMENT_SET_NO><REV_AT_EPOCH>41095</REV_AT_EPOCH><BSTAR>.90918E-3</BSTAR><MEAN_MOTION_DOT>.2992E-4</MEAN_MOTION_DOT><MEAN_MOTION_DDOT>0</MEAN_MOTION_DDOT></tleParameters></data></segment></body></omm>
<omm id="CCSDS_OMM_VERS" version="2.0">
<header><CREATION_DATE/><ORIGINATOR/></header><body><segment><metadata><OBJECT_NAME>ORBCOMM FM09</OBJECT_NAME><OBJECT_ID>1997-084E</OBJECT_ID><CENTER_NAME>EARTH</CENTER_NAME><REF_FRAME>TEME</REF_FRAME><TIME_SYSTEM>UTC</TIME_SYSTEM><MEAN_ELEMENT_THEORY>SGP4</MEAN_ELEMENT_THEORY></metadata><data><meanElements><EPOCH>2024-11-19T08:26:24.063360</EPOCH><MEAN_MOTION>14.43893982</MEAN_MOTION><ECCENTRICITY>.0005699</ECCENTRICITY><INCLINATION>45.0154</INCLINATION><RA_OF_ASC_NODE>296.9845</RA_OF_ASC_NODE><ARG_OF_PERICENTER>239.1090</ARG_OF_PERICENTER><MEAN_ANOMALY>120.9201</MEAN_ANOMALY></meanElements><tleParameters><EPHEMERIS_TYPE>0</EPHEMERIS_TYPE><CLASSIFICATION_TYPE>U</CLASSIFICATION_TYPE><NORAD_CAT_ID>25116</NORAD_CAT_ID><ELEMENT_SET_NO>999</ELEMENT_SET_NO><REV_AT_EPOCH>41113</REV_AT_EPOCH><BSTAR>.85842E-3</BSTAR><MEAN_MOTION_DOT>.2813E-4</MEAN_MOTION_DOT><MEAN_MOTION_DDOT>0</MEAN_MOTION_DDOT></tleParameters></data></segment></body></omm>

</ndm>
